OBJECT_NAME,OBJECT_ID,EPOCH,MEAN_MOTION,ECCENTRICITY,INCLINATION,RA_OF_ASC_NODE,ARG_OF_PERICENTER,MEAN_ANOMALY,EPHEMERIS_TYPE,CLASSIFICATION_TYPE,NORAD_CAT_ID,ELEMENT_SET_NO,REV_AT_EPOCH,BSTAR,MEAN_MOTION_DOT,MEAN_MOTION_DDOT
NOAA 18,2005-018A,2026-06-16T06:32:45.977568,14.13729019,.00148521,98.8114,246.9630,150.0843,210.1182,0,U,28654,999,8618,.4779286E-4,.47E-6,0
SJ-7,2005-024A,2026-06-16T00:55:17.405760,15.21529048,.00164444,97.7278,197.1110,41.7174,318.5311,0,U,28737,999,14785,.32689738E-3,.7315E-4,0
CUBESAT XI-V,2005-043F,2026-06-15T21:47:12.547104,14.72628612,.0013554,98.2984,322.5028,204.9214,155.1340,0,U,28895,999,10156,.19838E-3,.1212E-4,0
CLOUDSAT,2006-016A,2026-06-16T06:34:56.551296,14.86392529,.00047725,98.3928,204.5143,350.1195,9.9924,0,U,29107,999,7437,.10942802E-3,.905E-5,0
CALIPSO,2006-016B,2026-06-16T06:36:56.180736,14.69348612,.00009515,98.4470,182.9083,84.4918,275.6395,0,U,29108,999,7292,.14960046E-3,.831E-5,0
HINODE (SOLAR-B),2006-041A,2026-06-16T07:11:30.409728,14.68622046,.00160435,98.0548,183.4654,292.8660,67.0851,0,U,29479,999,5474,.1068563E-3,.573E-5,0
METOP-A,2006-044A,2026-06-16T07:31:05.854944,14.75974923,.01750538,98.3333,273.9869,72.3557,353.4453,0,U,29499,999,2532,.20420274E-3,.1741E-4,0
SHIJIAN-6 02B (SJ-6 02B),2006-046B,2026-06-16T08:19:08.783616,15.01376257,.00153367,97.7156,196.4105,62.8561,297.4225,0,U,29506,999,7061,.10881564E-3,.1345E-4,0
DMSP 5D-3 F17 (USA 191),2006-050A,2026-06-16T06:00:38.826432,14.14993026,.00111911,98.7378,173.8397,61.8613,298.3690,0,U,29522,999,1229,.29181049E-4,.13E-6,0
LAPAN-TUBSAT,2007-001A,2026-06-16T05:51:45.582912,14.85950939,.0011774,98.1336,166.4468,182.1821,177.9344,0,U,29709,999,5101,.54838964E-4,.421E-5,0
HAIYANG-1B,2007-010A,2026-06-16T05:39:36.931968,14.31026668,.00129541,98.3495,149.1179,199.2867,160.7828,0,U,31113,999,50,.41177129E-4,.67E-6,0
BEIDOU-2 M1,2007-011A,2026-06-15T16:30:47.140704,1.77349393,.00016269,50.9312,219.3283,340.3876,19.7021,0,U,31115,999,7612,0,.46E-6,0
CAPE-1,2007-012P,2026-06-16T05:08:08.878560,14.64872296,.00848545,98.4461,141.6823,74.4773,286.5778,0,U,31130,999,1821,.24235248E-3,.131E-4,0
CBERS 2B,2007-042A,2026-06-16T06:47:38.824800,14.41475667,.0030632,98.3924,111.9482,339.8413,147.7850,0,U,32062,999,98455,.72810671E-4,.194E-5,0
COSMO-SKYMED 2,2007-059A,2026-06-16T06:48:06.594624,14.82154423,.00013577,97.8886,350.8945,86.9364,273.2005,0,U,32376,999,187,.49214121E-4,.34E-5,0
CARTOSAT-2A,2008-021A,2026-06-16T07:15:31.078656,14.79238850,.0013163,97.7634,216.0413,111.4698,248.7919,0,U,32783,999,97867,.13044086E-3,.92E-5,0
CUTE-1.7+APD II (CO-65),2008-021C,2026-06-16T06:06:21.195072,15.09444415,.00098828,97.8271,148.6535,42.0213,318.1772,0,U,32785,999,98505,.24216284E-3,.3812E-4,0
SEEDS II (CO-66),2008-021J,2026-06-15T23:03:02.222496,15.32715926,.00012258,97.7511,164.7995,8.5431,351.5831,0,U,32791,999,98710,.47997359E-3,.15094E-3,0
YUBILEINY (RS30),2008-025A,2026-06-16T07:02:54.113568,12.43179662,.00188996,82.5038,355.9964,315.9355,44.0218,0,U,32953,999,81958,.58838545E-3,.92E-6,0
FENGYUN 3A,2008-026A,2026-06-16T06:31:41.723616,14.19570933,.00095537,98.6883,108.1222,126.0638,234.1425,0,U,32958,999,93527,.42426618E-4,.46E-6,0
HUANJING 1A (HJ-1A),2008-041A,2026-06-16T06:57:15.645024,14.83983777,.00198682,97.6675,153.1629,137.4334,222.8425,0,U,33320,999,95827,.85572683E-4,.663E-5,0
HUANJING 1B (HJ-1B),2008-041B,2026-06-16T06:12:08.358912,14.83315939,.00359675,97.6510,156.3070,184.0129,176.0802,0,U,33321,999,95827,.13415336E-3,.1059E-4,0
SHIJIAN-6 03A (SJ-6 03A),2008-053A,2026-06-16T06:10:36.420672,15.17157652,.00118271,97.8402,200.5454,23.7750,336.4027,0,U,33408,999,96282,.18981355E-3,.37E-4,0
SHIJIAN-6 03B (SJ-6 03B),2008-053B,2026-06-16T07:14:19.828896,15.04307523,.00209942,97.8572,187.1788,47.9298,312.3709,0,U,33409,999,96261,.89318739E-4,.1184E-4,0
CHUANGXIN 1-02 (CX-1-02),2008-056B,2026-06-16T07:37:59.447424,14.30153820,.00149591,98.6131,193.5935,138.8778,221.3535,0,U,33434,999,91849,.12175374E-3,.272E-5,0
STARS (KUKAI),2009-002G,2026-06-15T19:32:23.860320,14.95746211,.00087349,98.1558,114.0669,162.4092,197.7432,0,U,33498,999,93827,.30408824E-3,.3328E-4,0
KKS-1 (KISEKI),2009-002H,2026-06-16T07:29:22.976736,14.83122279,.00065846,98.1190,89.7405,299.3128,60.7427,0,U,33499,999,93606,.14878073E-3,.1157E-4,0
NOAA 19,2009-005A,2026-06-16T06:30:56.422368,14.13474168,.00143239,98.9521,238.1456,36.9267,323.2889,0,U,33591,999,89435,.43245251E-4,.37E-6,0
UK-DMC 2,2009-041C,2026-06-16T08:16:08.435712,14.76026128,.00011749,97.8837,302.3310,77.9600,282.1741,0,U,35683,999,90644,.12804197E-3,.832E-5,0
METEOR-M 1,2009-049A,2026-06-15T21:07:33.305376,14.23156628,.0001669,98.7385,129.3632,343.0105,17.1017,0,U,35865,999,86906,.438E-4,.55E-6,0
OCEANSAT-2,2009-051A,2026-06-16T06:29:07.934208,13.99664577,.00151322,98.2324,154.2131,238.7542,121.2142,0,U,35931,999,87920,-.52268939E-4,-.114E-5,0
SWISSCUBE,2009-051B,2026-06-16T06:42:05.863392,14.62480239,.00058983,98.4037,75.1516,206.1840,153.9064,0,U,35932,999,88902,.17480141E-3,.836E-5,0
BEESAT-1,2009-051C,2026-06-16T06:55:00.230304,14.61719271,.00041728,98.3965,74.7982,220.4264,139.6627,0,U,35933,999,88905,.14946323E-3,.696E-5,0
ITUPSAT1,2009-051E,2026-06-16T06:40:45.113088,14.60439597,.00062273,98.4049,73.9810,237.3413,122.7187,0,U,35935,999,88860,.14314844E-3,.645E-5,0
DMSP 5D-3 F18 (USA 210),2009-057A,2026-06-16T07:01:10.500960,14.14896298,.00098826,98.9038,148.0635,252.4302,107.5792,0,U,35951,999,85946,.13730078E-3,.221E-5,0
PROBA-2,2009-059B,2026-06-16T01:42:39.347136,14.54862034,.00119838,98.2449,350.4395,285.9683,74.0194,0,U,36037,999,88136,.45041512E-4,.148E-5,0
YAOGAN-7,2009-069A,2026-06-16T06:38:00.503808,14.78009115,.00256261,98.0073,53.1491,44.5254,315.8010,0,U,36110,999,88949,.65308918E-4,.421E-5,0
XIWANG-1 (HOPE-1),2009-072B,2026-06-16T06:08:29.220000,13.16437719,.00068583,100.4025,121.1031,234.0890,125.9587,0,U,36122,999,79288,-.70649809E-3,-.314E-5,0
RADUGA-1M 2,2010-002A,2026-06-16T02:31:46.127136,0.98967497,.00056998,3.6186,78.8712,264.9393,272.3644,0,U,36358,999,5001,0,-.211E-5,0
COSMOS 2463,2010-017A,2026-06-16T07:33:49.334112,13.71665619,.00372991,82.9606,250.3464,131.2117,291.8655,0,U,36519,999,80781,.42868666E-4,.54E-6,0
CARTOSAT-2B,2010-035A,2026-06-16T07:47:28.723200,14.78661414,.00111043,97.9954,217.8800,186.4959,173.6110,0,U,36795,999,85972,.96545445E-4,.656E-5,0
AISSAT 1,2010-035C,2026-06-16T06:35:26.421504,14.97363280,.00107363,98.0930,66.4866,65.6483,294.5857,0,U,36797,999,86408,.23039091E-3,.2615E-4,0
TISAT 1,2010-035E,2026-06-15T19:27:09.022176,15.31663542,.00012018,98.0713,113.2374,169.6486,190.4779,0,U,36799,999,86749,.54469447E-3,.16585E-3,0
YAOGAN-10,2010-038A,2026-06-16T08:09:36.180576,14.85345938,.00016628,97.8972,190.7507,84.4782,333.0058,0,U,36834,999,85708,.1349717E-3,.1107E-4,0
SHIJIAN-6 04B (SJ-6 04B),2010-051B,2026-06-16T06:55:55.777728,14.99312463,.00080883,97.8678,172.6897,317.6789,42.3808,0,U,37180,999,85554,.977166E-4,.1132E-4,0
FENGYUN 3B,2010-059A,2026-06-16T07:31:42.484224,14.14840995,.00218451,98.9621,213.3244,186.4654,234.5070,0,U,37214,999,80730,-.64920579E-4,-.171E-5,0
COSMO-SKYMED 4,2010-060A,2026-06-16T07:06:20.866176,14.82152547,.00014389,97.8879,350.9086,81.3153,278.8223,0,U,37216,999,84443,.16058247E-4,.76E-6,0
O/OREOS (USA 219),2010-062C,2026-06-16T04:35:54.922560,14.93741110,.00125321,71.9714,82.5947,65.2237,295.0236,0,U,37224,999,11649,.18866144E-3,.1939E-4,0
ELEKTRO-L 1 (GOMS 2),2011-001A,2026-06-15T14:42:19.975680,1.00155709,.00040332,9.6826,54.5218,30.3705,288.7280,0,U,37344,999,5646,0,-.48E-6,0
RESOURCESAT-2,2011-015A,2026-06-16T05:51:57.635712,14.21606229,.0010189,98.7644,234.6928,258.5061,101.4973,0,U,37387,999,78604,.47871355E-4,.61E-6,0
YOUTHSAT,2011-015B,2026-06-15T23:09:22.288320,14.25629848,.0014301,98.3682,141.0740,350.6970,78.7544,0,U,37388,999,78746,.76E-4,.139E-5,0
APRIZESAT 6,2011-044F,2026-06-15T23:53:28.156128,14.76914317,.00444963,98.2365,77.4707,89.7335,333.6407,0,U,37793,999,79697,.98906232E-4,.651E-5,0
JUGNU,2011-058B,2026-06-16T02:50:42.503136,14.13776503,.00186362,19.9617,314.9218,64.4642,109.1077,0,U,37839,999,75887,.69481526E-4,.4E-5,0
SRMSAT,2011-058D,2026-06-16T02:03:38.583936,14.11575350,.0011815,19.9722,66.1331,191.4739,210.8496,0,U,37841,999,75766,.48744584E-4,.355E-5,0
SUOMI NPP,2011-061A,2026-06-16T06:47:53.010816,14.19517179,.00015879,98.7953,108.1655,9.0005,351.1199,0,U,37849,999,75831,.46937852E-4,.55E-6,0
YAOGAN-12,2011-066B,2026-06-16T08:21:14.734080,15.26591787,.00085928,97.1141,205.9558,219.6742,140.3869,0,U,37875,999,81191,.14238512E-3,.3661E-4,0
BEIDOU-2 M4,2012-018B,2026-06-16T01:07:45.773184,1.86229400,.00112985,55.6594,304.1282,275.8686,83.9863,0,U,38251,999,9592,0,-.71E-6,0
ARIRANG-3 (KOMPSAT-3),2012-025B,2026-06-16T06:43:09.733728,14.62205503,.00066448,98.1170,124.7555,111.5920,248.5990,0,U,38338,999,75121,.8106638E-4,.362E-5,0
HORYU-2,2012-025D,2026-06-16T07:11:37.718304,14.91062671,.00082577,98.2177,300.1994,176.8230,183.3041,0,U,38340,999,74859,.28613761E-3,.2774E-4,0
CSSWE,2012-048D,2026-06-16T04:35:35.711520,15.44422761,.00472514,64.6630,96.8658,174.0997,186.0708,0,U,38761,999,11624,.45808958E-3,.22012E-3,0
CP5,2012-048F,2026-06-16T06:45:59.475168,15.27730748,.00787767,64.6429,155.5791,176.6479,183.5196,0,U,38763,999,11662,.27241155E-3,.7896E-4,0
METOP-B,2012-049A,2026-06-16T06:35:20.061600,14.21432528,.0002289,98.6505,218.7919,21.9428,338.1847,0,U,38771,999,71313,.62920178E-4,.94E-6,0
SJ-9A,2012-056A,2026-06-16T05:18:50.498784,14.85476917,.00239696,97.6709,139.2078,260.0680,99.7830,0,U,38860,999,69944,.10167187E-3,.828E-5,0
COSMOS 2484 (RODNIK-S 6),2013-001C,2026-06-16T06:15:20.073600,12.42938991,.00269197,82.5019,222.4685,38.6014,321.6984,0,U,39059,999,60844,.2343869E-3,.43E-6,0
SARAL,2013-009A,2026-06-16T06:32:47.751360,14.32855730,.00007513,98.5556,353.8516,315.8240,44.2884,0,U,39086,999,69547,.41986022E-4,.71E-6,0
